{"type": "FeatureCollection", "features": [ {"type": "Feature", "properties": {"norad_id": 66868, "name": "STARLINK-36108", "group": "last-30-days", "lat": -11.291869412054753, "lon": 64.49940364183995, "alt_km": 345.203859848345, "timestamp": "2025-12-20T03:42:46.121411+00:00", "meta": {"OBJECT_NAME": "STARLINK-36108", "OBJECT_ID": "2025-281W", "EPOCH": "2025-12-19T20:00:01.999008", "MEAN_MOTION": 15.75045594, "ECCENTRICITY": 0.0001643, "INCLINATION": 43.0008, "RA_OF_ASC_NODE": 78.8223, "ARG_OF_PERICENTER": 272.5424, "MEAN_ANOMALY": 46.5298, "EPHEMERIS_TYPE": 0, "CLASSIFICATION_TYPE": "U", "NORAD_CAT_ID": 66868, "ELEMENT_SET_NO": 999, "REV_AT_EPOCH": 237, "BSTAR": 1.6516e-05, "MEAN_MOTION_DOT": 2.061e-05, "MEAN_MOTION_DDOT": 0}, "tle": {"line1": "1 66868U 25281W   25353.83335647  .00002061  00000+0  16516-4 0  9990", "line2": "2 66868  43.0008  78.8223 0001643 272.5424  46.5298 15.75045594  2372"}}, "geometry": {"type": "Point", "coordinates": [64.49940364183995, -11.291869412054753]}}, {"type": "Feature", "properties": {"norad_id": 66869, "name": "STARLINK-36092", "group": "last-30-days", "lat": -10.00383679301498, "lon": 65.9559995039606, "alt_km": 345.0259641830189, "timestamp": "2025-12-20T03:42:46.121422+00:00", "meta": {"OBJECT_NAME": "STARLINK-36092", "OBJECT_ID": "2025-281X", "EPOCH": "2025-12-19T20:00:01.999008", "MEAN_MOTION": 15.7504767, "ECCENTRICITY": 0.0001583, "INCLINATION": 43.0019, "RA_OF_ASC_NODE": 78.8172, "ARG_OF_PERICENTER": 277.1655, "MEAN_ANOMALY": 43.8349, "EPHEMERIS_TYPE": 0, "CLASSIFICATION_TYPE": "U", "NORAD_CAT_ID": 66869, "ELEMENT_SET_NO": 999, "REV_AT_EPOCH": 256, "BSTAR": 2.4634e-05, "MEAN_MOTION_DOT": 3.309e-05, "MEAN_MOTION_DDOT": 0}, "tle": {"line1": "1 66869U 25281X   25353.83335647  .00003309  00000+0  24634-4 0  9997", "line2": "2 66869  43.0019  78.8172 0001583 277.1655  43.8349 15.75047670  2563"}}, "geometry": {"type": "Point", "coordinates": [65.9559995039606, -10.00383679301498]}}, {"type": "Feature", "properties": {"norad_id": 66870, "name": "STARLINK-36114", "group": "last-30-days", "lat": -8.725231865758621, "lon": 67.38315293557122, "alt_km": 344.87670226517275, "timestamp": "2025-12-20T03:42:46.121432+00:00", "meta": {"OBJECT_NAME": "STARLINK-36114", "OBJECT_ID": "2025-281Y", "EPOCH": "2025-12-19T20:00:01.999008", "MEAN_MOTION": 15.75036407, "ECCENTRICITY": 0.0001634, "INCLINATION": 43.0007, "RA_OF_ASC_NODE": 78.8127, "ARG_OF_PERICENTER": 279.2204, "MEAN_ANOMALY": 43.6933, "EPHEMERIS_TYPE": 0, "CLASSIFICATION_TYPE": "U", "NORAD_CAT_ID": 66870, "ELEMENT_SET_NO": 999, "REV_AT_EPOCH": 243, "BSTAR": 0.00011064, "MEAN_MOTION_DOT": 0.00016549, "MEAN_MOTION_DDOT": 0}, "tle": {"line1": "1 66870U 25281Y   25353.83335647  .00016549  00000+0  11064-3 0  9991", "line2": "2 66870  43.0007  78.8127 0001634 279.2204  43.6933 15.75036407  2431"}}, "geometry": {"type": "Point", "coordinates": [67.38315293557122, -8.725231865758621]}}, {"type": "Feature", "properties": {"norad_id": 66871, "name": "STARLINK-36095", "group": "last-30-days", "lat": -7.436922969217767, "lon": 68.80518506639127, "alt_km": 344.8407928456745, "timestamp": "2025-12-20T03:42:46.121442+00:00", "meta": {"OBJECT_NAME": "STARLINK-36095", "OBJECT_ID": "2025-281Z", "EPOCH": "2025-12-19T20:00:01.999008", "MEAN_MOTION": 15.75015975, "ECCENTRICITY": 0.0001625, "INCLINATION": 43.0021, "RA_OF_ASC_NODE": 78.8071, "ARG_OF_PERICENTER": 275.3459, "MEAN_ANOMALY": 49.4928, "EPHEMERIS_TYPE": 0, "CLASSIFICATION_TYPE": "U", "NORAD_CAT_ID": 66871, "ELEMENT_SET_NO": 999, "REV_AT_EPOCH": 256, "BSTAR": 0.00030524, "MEAN_MOTION_DOT": 0.00046621, "MEAN_MOTION_DDOT": 0}, "tle": {"line1": "1 66871U 25281Z   25353.83335647  .00046621  00000+0  30524-3 0  9998", "line2": "2 66871  43.0021  78.8071 0001625 275.3459  49.4928 15.75015975  2564"}}, "geometry": {"type": "Point", "coordinates": [68.80518506639127, -7.436922969217767]}}, {"type": "Feature", "properties": {"norad_id": 66872, "name": "STARLINK-36082", "group": "last-30-days", "lat": -6.139675409775646, "lon": 70.22372048538631, "alt_km": 344.5989750796507, "timestamp": "2025-12-20T03:42:46.121452+00:00", "meta": {"OBJECT_NAME": "STARLINK-36082", "OBJECT_ID": "2025-281AA", "EPOCH": "2025-12-19T20:00:01.999008", "MEAN_MOTION": 15.75040539, "ECCENTRICITY": 0.000166, "INCLINATION": 43.0015, "RA_OF_ASC_NODE": 78.8023, "ARG_OF_PERICENTER": 281.5477, "MEAN_ANOMALY": 45.1947, "EPHEMERIS_TYPE": 0, "CLASSIFICATION_TYPE": "U", "NORAD_CAT_ID": 66872, "ELEMENT_SET_NO": 999, "REV_AT_EPOCH": 243, "BSTAR": 7.0183e-05, "MEAN_MOTION_DOT": 0.00010317, "MEAN_MOTION_DDOT": 0}, "tle": {"line1": "1 66872U 25281AA  25353.83335647  .00010317  00000+0  70183-4 0  9998", "line2": "2 66872  43.0015  78.8023 0001660 281.5477  45.1947 15.75040539  2437"}}, "geometry": {"type": "Point", "coordinates": [70.22372048538631, -6.139675409775646]}}, {"type": "Feature", "properties": {"norad_id": 66873, "name": "STARLINK-36128", "group": "last-30-days", "lat": -2.231397047666485, "lon": 74.44076478520711, "alt_km": 344.37791575579195, "timestamp": "2025-12-20T03:42:46.121462+00:00", "meta": {"OBJECT_NAME": "STARLINK-36128", "OBJECT_ID": "2025-281AB", "EPOCH": "2025-12-19T20:00:01.999008", "MEAN_MOTION": 15.75040213, "ECCENTRICITY": 0.0001726, "INCLINATION": 43.0021, "RA_OF_ASC_NODE": 78.7871, "ARG_OF_PERICENTER": 274.6481, "MEAN_ANOMALY": 57.8504, "EPHEMERIS_TYPE": 0, "CLASSIFICATION_TYPE": "U", "NORAD_CAT_ID": 66873, "ELEMENT_SET_NO": 999, "REV_AT_EPOCH": 256, "BSTAR": -2.5188e-05, "MEAN_MOTION_DOT": -4.345e-05, "MEAN_MOTION_DDOT": 0}, "tle": {"line1": "1 66873U 25281AB  25353.83335647 -.00004345  00000+0 -25188-4 0  9990", "line2": "2 66873  43.0021  78.7871 0001726 274.6481  57.8504 15.75040213  2568"}}, "geometry": {"type": "Point", "coordinates": [74.44076478520711, -2.231397047666485]}}, {"type": "Feature", "properties": {"norad_id": 66874, "name": "STARLINK-36129", "group": "last-30-days", "lat": -4.836542379899673, "lon": 71.63773587644052, "alt_km": 344.5620233924965, "timestamp": "2025-12-20T03:42:46.121474+00:00", "meta": {"OBJECT_NAME": "STARLINK-36129", "OBJECT_ID": "2025-281AC", "EPOCH": "2025-12-19T20:00:01.999008", "MEAN_MOTION": 15.75034521, "ECCENTRICITY": 0.0001688, "INCLINATION": 43.0022, "RA_OF_ASC_NODE": 78.7972, "ARG_OF_PERICENTER": 276.4035, "MEAN_ANOMALY": 52.262, "EPHEMERIS_TYPE": 0, "CLASSIFICATION_TYPE": "U", "NORAD_CAT_ID": 66874, "ELEMENT_SET_NO": 999, "REV_AT_EPOCH": 256, "BSTAR": 0.00015649, "MEAN_MOTION_DOT": 0.00023623, "MEAN_MOTION_DDOT": 0}, "tle": {"line1": "1 66874U 25281AC  25353.83335647  .00023623  00000+0  15649-3 0  9999", "line2": "2 66874  43.0022  78.7972 0001688 276.4035  52.2620 15.75034521  2567"}}, "geometry": {"type": "Point", "coordinates": [71.63773587644052, -4.836542379899673]}}, {"type": "Feature", "properties": {"norad_id": 66875, "name": "STARLINK-36053", "group": "last-30-days", "lat": -0.9270193075790201, "lon": 75.8369336962996, "alt_km": 344.36791139512115, "timestamp": "2025-12-20T03:42:46.121484+00:00", "meta": {"OBJECT_NAME": "STARLINK-36053", "OBJECT_ID": "2025-281AD", "EPOCH": "2025-12-19T20:00:01.999008", "MEAN_MOTION": 15.75035393, "ECCENTRICITY": 0.000163, "INCLINATION": 43.0023, "RA_OF_ASC_NODE": 78.7818, "ARG_OF_PERICENTER": 267.0869, "MEAN_ANOMALY": 67.322, "EPHEMERIS_TYPE": 0, "CLASSIFICATION_TYPE": "U", "NORAD_CAT_ID": 66875, "ELEMENT_SET_NO": 999, "REV_AT_EPOCH": 256, "BSTAR": 0.00015124, "MEAN_MOTION_DOT": 0.00022813, "MEAN_MOTION_DDOT": 0}, "tle": {"line1": "1 66875U 25281AD  25353.83335647  .00022813  00000+0  15124-3 0  9998", "line2": "2 66875  43.0023  78.7818 0001630 267.0869  67.3220 15.75035393  2567"}}, "geometry": {"type": "Point", "coordinates": [75.8369336962996, -0.9270193075790201]}}, {"type": "Feature", "properties": {"norad_id": 66876, "name": "STARLINK-35702", "group": "last-30-days", "lat": -3.5381623022760307, "lon": 73.03808044980923, "alt_km": 344.3644972106322, "timestamp": "2025-12-20T03:42:46.121494+00:00", "meta": {"OBJECT_NAME": "STARLINK-35702", "OBJECT_ID": "2025-281AE", "EPOCH": "2025-12-19T20:00:01.999008", "MEAN_MOTION": 15.75064818, "ECCENTRICITY": 0.0001755, "INCLINATION": 43.0023, "RA_OF_ASC_NODE": 78.7924, "ARG_OF_PERICENTER": 280.5316, "MEAN_ANOMALY": 50.0302, "EPHEMERIS_TYPE": 0, "CLASSIFICATION_TYPE": "U", "NORAD_CAT_ID": 66876, "ELEMENT_SET_NO": 999, "REV_AT_EPOCH": 256, "BSTAR": -0.0002194, "MEAN_MOTION_DOT": -0.00034082, "MEAN_MOTION_DDOT": 0}, "tle": {"line1": "1 66876U 25281AE  25353.83335647 -.00034082  00000+0 -21940-3 0  9995", "line2": "2 66876  43.0023  78.7924 0001755 280.5316  50.0302 15.75064818  2565"}}, "geometry": {"type": "Point", "coordinates": [73.03808044980923, -3.5381623022760307]}}, {"type": "Feature", "properties": {"norad_id": 66877, "name": "ZQ-3 R/B", "group": "last-30-days", "lat": -54.44557742339253, "lon": -85.39727242071093, "alt_km": 183.62300472781044, "timestamp": "2025-12-20T03:42:46.121505+00:00", "meta": {"OBJECT_NAME": "ZQ-3 R/B", "OBJECT_ID": "2025-282A", "EPOCH": "2025-12-19T20:01:46.315776", "MEAN_MOTION": 14.73971874, "ECCENTRICITY": 0.0719152, "INCLINATION": 56.9493, "RA_OF_ASC_NODE": 30.2137, "ARG_OF_PERICENTER": 232.403, "MEAN_ANOMALY": 120.9601, "EPHEMERIS_TYPE": 0, "CLASSIFICATION_TYPE": "U", "NORAD_CAT_ID": 66877, "ELEMENT_SET_NO": 999, "REV_AT_EPOCH": 243, "BSTAR": 0.00017793, "MEAN_MOTION_DOT": 0.00980728, "MEAN_MOTION_DDOT": 7.7351e-06}, "tle": {"line1": "1 66877U 25282A   25353.83456384  .00980728  77351-5  17793-3 0  9994", "line2": "2 66877  56.9493  30.2137 0719152 232.4030 120.9601 14.73971874  2436"}}, "geometry": {"type": "Point", "coordinates": [-85.39727242071093, -54.44557742339253]}}]}